OBJECT_NAME,OBJECT_ID,EPOCH,MEAN_MOTION,ECCENTRICITY,INCLINATION,RA_OF_ASC_NODE,ARG_OF_PERICENTER,MEAN_ANOMALY,EPHEMERIS_TYPE,CLASSIFICATION_TYPE,NORAD_CAT_ID,ELEMENT_SET_NO,REV_AT_EPOCH,BSTAR,MEAN_MOTION_DOT,MEAN_MOTION_DDOT
CARTOSAT-2E,2017-036C,2026-06-17T04:13:50.583360,15.19254923,.0002507,97.4271,227.9787,318.3706,41.7338,0,U,42767,999,49814,.17774E-3,.3679E-4,0
IRIDIUM 113,2017-039A,2026-06-17T04:05:39.204096,14.34217642,.0002284,86.3970,322.1855,89.5061,270.6397,0,U,42803,999,47118,-.36573E-5,.1E-6,0
NORSAT 2,2017-042D,2026-06-17T00:39:50.403744,15.21925416,.0010483,97.4035,341.4702,57.6896,302.5354,0,U,42828,999,48771,.41263E-3,.9349E-4,0
TECHNOSAT,2017-042E,2026-06-17T04:23:12.171264,15.04961466,.0018959,97.4286,325.8401,94.2358,266.1036,0,U,42829,999,48670,.22713E-3,.3172E-4,0
FLYING LAPTOP,2017-042G,2026-06-17T04:27:09.405792,15.01143957,.0019599,97.4687,323.7174,121.7521,238.5617,0,U,42831,999,48645,.16791E-3,.2102E-4,0
WNISAT 1R,2017-042L,2026-06-17T03:48:18.375264,15.01762588,.0011176,97.4836,324.2815,147.3790,212.8128,0,U,42835,999,48650,.14168E-3,.1789E-4,0
LEMUR-2-GREENBERG,2017-042N,2026-06-17T00:31:12.737280,15.31323939,.000855,97.3814,348.6466,14.6449,345.5038,0,U,42837,999,48836,.4495E-3,.13546E-3,0
LEMUR-2-FURIAUS,2017-042R,2026-06-17T00:22:06.458592,15.30247793,.0008197,97.3766,346.5958,69.8160,290.3962,0,U,42840,999,48818,.50194E-3,.14639E-3,0
CORVUS BC2,2017-042X,2026-06-16T22:17:57.632064,15.06295981,.001432,97.4064,329.2884,111.3747,248.9010,0,U,42846,999,48702,.24287E-3,.3516E-4,0
CORVUS BC1,2017-042Y,2026-06-17T04:32:49.972128,15.06467097,.0013369,97.4101,330.3528,89.2035,271.0724,0,U,42847,999,48709,.20369E-3,.2952E-4,0
VRSS-2,2017-060A,2026-06-17T04:29:26.123424,14.81193048,.0018595,97.6507,205.9138,98.8181,261.5139,0,U,42954,999,46845,.59356E-4,.413E-5,0
MOHAMMED VI-A,2017-070A,2026-06-17T05:03:42.894432,14.77067656,.0001353,97.9563,240.5413,72.1063,288.0295,0,U,43005,999,46398,.14014E-4,.48E-6,0
FENGYUN 3D,2017-072A,2026-06-17T05:13:40.920672,14.19739314,.0002577,99.0122,142.6410,62.8384,297.3054,0,U,43010,999,44499,.81928E-4,.127E-5,0
NOAA 20 (JPSS-1),2017-073A,2026-06-17T03:24:55.329984,14.19511730,.0000297,98.7771,107.6053,96.7704,263.3506,0,U,43013,999,44446,.45699E-4,.52E-6,0
MAKERSAT 0,2017-073D,2026-06-16T22:02:54.169728,15.32091803,.0105097,97.4619,50.4356,273.9558,84.9674,0,U,43016,999,46642,.39184E-3,.14378E-3,0
RADFXSAT (FOX-1B),2017-073E,2026-06-16T21:03:14.520960,15.12714806,.0149597,97.4700,35.0982,330.3447,28.9362,0,U,43017,999,46534,.28237E-3,.6435E-4,0
JILIN-1 04,2017-074A,2026-06-17T03:37:34.686624,15.42440855,.0004179,97.4866,277.7621,178.4956,181.6304,0,U,43022,999,47426,.23547E-3,.101E-3,0
JILIN-1 05,2017-074B,2026-06-17T04:28:26.889312,15.33876357,.0004365,97.4871,274.3402,213.9260,146.1703,0,U,43023,999,47400,.20927E-3,.6777E-4,0
JILIN-1 06,2017-074C,2026-06-17T03:47:31.601760,15.33692206,.0005692,97.4796,271.3212,230.8010,129.2727,0,U,43024,999,47383,.14936E-3,.4786E-4,0
IRIDIUM 116,2017-083C,2026-06-17T03:29:07.118592,14.34217713,.0001976,86.3963,322.0187,98.8967,261.2452,0,U,43072,999,44416,-.32752E-5,.11E-6,0
IRIDIUM 130,2017-083D,2026-06-17T04:23:54.952224,14.34218651,.0001949,86.3971,322.2781,92.5239,267.6180,0,U,43073,999,44411,.32176E-4,.11E-5,0
LKW-2,2017-084A,2026-06-17T03:49:51.149856,15.26337989,.0001131,97.1186,207.9563,173.4882,186.6372,0,U,43080,999,47168,.13802E-3,.3516E-4,0
SUPERVIEW-1 03,2018-002A,2026-06-17T03:58:43.059360,15.39258354,.0047142,97.3136,253.0029,179.6285,180.5005,0,U,43099,999,46836,.42566E-3,.1716E-3,0
CARTOSAT-2F,2018-004A,2026-06-17T03:25:19.904736,15.19214452,.0000644,97.4787,227.7771,204.0744,156.0460,0,U,43111,999,46732,.1317E-3,.2704E-4,0
LKW-3,2018-006A,2026-06-17T04:25:15.642912,15.35244980,.0002082,97.6610,328.7572,321.9141,38.1955,0,U,43146,999,46871,.18272E-3,.6166E-4,0
ASNARO-2,2018-007A,2026-06-17T04:27:55.584000,15.22394483,.0001952,97.3967,175.1134,91.4862,268.6598,0,U,43152,999,46741,.33363E-3,.7639E-4,0
JILIN-1 07,2018-008E,2026-06-17T03:47:45.660768,15.34721994,.0009894,97.1764,188.0875,65.4428,294.7846,0,U,43159,999,46499,.20479E-3,.6825E-4,0
JILIN-1 08,2018-008F,2026-06-17T03:48:04.012992,15.33711922,.0008014,97.1798,187.4042,80.2816,279.9332,0,U,43160,999,46494,.14003E-3,.4492E-4,0
S-NET D,2018-014G,2026-06-16T19:15:03.534336,15.16670775,.0008988,97.5365,72.5955,31.7411,328.4362,0,U,43186,999,45870,.22071E-3,.4256E-4,0
