CARTOSAT-2E             
1 42767U 17036C   26168.17627990  .00003679  00000+0  17774-3 0  9990
2 42767  97.4271 227.9787 0002507 318.3706  41.7338 15.19254923498145
IRIDIUM 113             
1 42803U 17039A   26168.17059264  .00000010  00000+0 -36573-5 0  9994
2 42803  86.3970 322.1855 0002284  89.5061 270.6397 14.34217642471182
NORSAT 2                
1 42828U 17042D   26168.02766671  .00009349  00000+0  41263-3 0  9999
2 42828  97.4035 341.4702 0010483  57.6896 302.5354 15.21925416487717
TECHNOSAT               
1 42829U 17042E   26168.18277976  .00003172  00000+0  22713-3 0  9999
2 42829  97.4286 325.8401 0018959  94.2358 266.1036 15.04961466486700
FLYING LAPTOP           
1 42831U 17042G   26168.18552553  .00002102  00000+0  16791-3 0  9990
2 42831  97.4687 323.7174 0019599 121.7521 238.5617 15.01143957486455
WNISAT 1R               
1 42835U 17042L   26168.15854601  .00001789  00000+0  14168-3 0  9996
2 42835  97.4836 324.2815 0011176 147.3790 212.8128 15.01762588486503
LEMUR-2-GREENBERG       
1 42837U 17042N   26168.02167520  .00013546  00000+0  44950-3 0  9997
2 42837  97.3814 348.6466 0008550  14.6449 345.5038 15.31323939488367
LEMUR-2-FURIAUS         
1 42840U 17042R   26168.01535253  .00014639  00000+0  50194-3 0  9993
2 42840  97.3766 346.5958 0008197  69.8160 290.3962 15.30247793488184
CORVUS BC2              
1 42846U 17042X   26167.92913926  .00003516  00000+0  24287-3 0  9991
2 42846  97.4064 329.2884 0014320 111.3747 248.9010 15.06295981487027
CORVUS BC1              
1 42847U 17042Y   26168.18946727  .00002952  00000+0  20369-3 0  9996
2 42847  97.4101 330.3528 0013369  89.2035 271.0724 15.06467097487098
VRSS-2                  
1 42954U 17060A   26168.18710791  .00000413  00000+0  59356-4 0  9994
2 42954  97.6507 205.9138 0018595  98.8181 261.5139 14.81193048468454
MOHAMMED VI-A           
1 43005U 17070A   26168.21091313  .00000048  00000+0  14014-4 0  9995
2 43005  97.9563 240.5413 0001353  72.1063 288.0295 14.77067656463986
FENGYUN 3D              
1 43010U 17072A   26168.21783473  .00000127  00000+0  81928-4 0  9994
2 43010  99.0122 142.6410 0002577  62.8384 297.3054 14.19739314444995
NOAA 20 (JPSS-1)        
1 43013U 17073A   26168.14230706  .00000052  00000+0  45699-4 0  9998
2 43013  98.7771 107.6053 0000297  96.7704 263.3506 14.19511730444464
MAKERSAT 0              
1 43016U 17073D   26167.91868252  .00014378  00000+0  39184-3 0  9995
2 43016  97.4619  50.4356 0105097 273.9558  84.9674 15.32091803466428
RADFXSAT (FOX-1B)       
1 43017U 17073E   26167.87725140  .00006435  00000+0  28237-3 0  9991
2 43017  97.4700  35.0982 0149597 330.3447  28.9362 15.12714806465347
JILIN-1 04              
1 43022U 17074A   26168.15109591  .00010100  00000+0  23547-3 0  9999
2 43022  97.4866 277.7621 0004179 178.4956 181.6304 15.42440855474260
JILIN-1 05              
1 43023U 17074B   26168.18642233  .00006777  00000+0  20927-3 0  9992
2 43023  97.4871 274.3402 0004365 213.9260 146.1703 15.33876357474008
JILIN-1 06              
1 43024U 17074C   26168.15800465  .00004786  00000+0  14936-3 0  9994
2 43024  97.4796 271.3212 0005692 230.8010 129.2727 15.33692206473833
IRIDIUM 116             
1 43072U 17083C   26168.14522128  .00000011  00000+0 -32752-5 0  9999
2 43072  86.3963 322.0187 0001976  98.8967 261.2452 14.34217713444160
IRIDIUM 130             
1 43073U 17083D   26168.18327491  .00000110  00000+0  32176-4 0  9998
2 43073  86.3971 322.2781 0001949  92.5239 267.6180 14.34218651444110
LKW-2                   
1 43080U 17084A   26168.15961979  .00003516  00000+0  13802-3 0  9996
2 43080  97.1186 207.9563 0001131 173.4882 186.6372 15.26337989471682
SUPERVIEW-1 03          
1 43099U 18002A   26168.16577615  .00017160  00000+0  42566-3 0  9997
2 43099  97.3136 253.0029 0047142 179.6285 180.5005 15.39258354468364
CARTOSAT-2F             
1 43111U 18004A   26168.14259149  .00002704  00000+0  13170-3 0  9998
2 43111  97.4787 227.7771 0000644 204.0744 156.0460 15.19214452467320
LKW-3                   
1 43146U 18006A   26168.18420883  .00006166  00000+0  18272-3 0  9991
2 43146  97.6610 328.7572 0002082 321.9141  38.1955 15.35244980468714
ASNARO-2                
1 43152U 18007A   26168.18606000  .00007639  00000+0  33363-3 0  9990
2 43152  97.3967 175.1134 0001952  91.4862 268.6598 15.22394483467414
JILIN-1 07              
1 43159U 18008E   26168.15816737  .00006825  00000+0  20479-3 0  9995
2 43159  97.1764 188.0875 0009894  65.4428 294.7846 15.34721994464991
JILIN-1 08              
1 43160U 18008F   26168.15837978  .00004492  00000+0  14003-3 0  9991
2 43160  97.1798 187.4042 0008014  80.2816 279.9332 15.33711922464947
S-NET D                 
1 43186U 18014G   26167.80212424  .00004256  00000+0  22071-3 0  9992
2 43186  97.5365  72.5955 0008988  31.7411 328.4362 15.16670775458709
